SKYSAT-C4               
1 41771U 16058B   26199.85560970  .00009989  00000+0  18286-3 0  9999
2 41771  96.9169 220.3204 0003536 113.2946 246.8678 15.49511206550373
SKYSAT-C5               
1 41772U 16058C   26199.86488845  .00003754  00000+0  11730-3 0  9992
2 41772  97.0451 239.0806 0002949 151.1874 208.9533 15.33747628548607
SKYSAT-C2               
1 41773U 16058D   26199.78893845  .00006485  00000+0  15037-3 0  9992
2 41773  97.0160 220.7072 0000942 331.9832  28.1366 15.42728957549926
SKYSAT-C3               
1 41774U 16058E   26199.51879048  .00013282  00000+0  20828-3 0  9990
2 41774  96.8991 229.1846 0002701 129.3372 230.8123 15.53801896550977
ALSAT-1B                
1 41785U 16059C   26199.84291275 -.00000102  00000+0 -87113-5 0  9990
2 41785  97.7755 207.2415 0010557 119.4787 240.7476 14.72294804525231
PATHFINDER 1            
1 41787U 16059E   26199.42934241  .00000260  00000+0  53518-4 0  9997
2 41787  97.8178 197.2974 0029926 105.9279 254.5227 14.67695242524294
SCATSAT 1               
1 41790U 16059H   26199.72834675  .00000589  00000+0  84036-4 0  9997
2 41790  98.1175 263.8177 0055460 145.3473 215.1372 14.79592072106256
GOKTURK 1A              
1 41875U 16073A   26199.84814846  .00000085  00000+0  25711-4 0  9994
2 41875  98.1207  94.0206 0001427  81.5942 278.5422 14.62794438513454
RESOURCESAT-2A          
1 41877U 16074A   26199.81326743  .00000177  00000+0  10097-3 0  9990
2 41877  98.7515 273.0574 0002178  19.5923 340.5337 14.21609994498796
CARTOSAT-2D             
1 41948U 17008A   26199.83882014  .00001957  00000+0  95883-4 0  9991
2 41948  97.4085 258.5503 0006221 128.3918 231.7876 15.19298717522386
SENTINEL-2B             
1 42063U 17013A   26199.81590475  .00000130  00000+0  66313-4 0  9999
2 42063  98.5681 274.1425 0001218  92.9836 267.1486 14.30816138489165
CARTOSAT-2E             
1 42767U 17036C   26199.85665760  .00001332  00000+0  66371-4 0  9998
2 42767  97.4253 259.1338 0003598 174.7811 185.3461 15.19267421502950
FORMOSAT-5              
1 42920U 17049A   26199.84485300  .00000032  00000+0  19241-4 0  9992
2 42920  98.2244 274.4498 0011078 352.5041   7.5987 14.50908396471264
SENTINEL-5P             
1 42969U 17064A   26199.77955308  .00000002  00000+0  22100-4 0  9999
2 42969  98.7929 141.6874 0001165  93.9963 266.1346 14.19523568454048
SKYSAT-C11              
1 42987U 17068A   26198.93692861  .00017166  00000+0  21849-3 0  9999
2 42987  97.4388 349.1483 0001289 155.4215 204.7103 15.59422768488035
SKYSAT-C10              
1 42988U 17068B   26199.84556417  .00005887  00000+0  17493-3 0  9994
2 42988  97.4546 337.0195 0001515 111.4367 248.7038 15.35160017487214
SKYSAT-C9               
1 42989U 17068C   26199.84305985  .00007023  00000+0  16521-3 0  9992
2 42989  97.4468 338.2593 0008324  32.9029 327.2734 15.42267528487635
SKYSAT-C8               
1 42990U 17068D   26199.83330859  .00005594  00000+0  15424-3 0  9993
2 42990  97.4564 336.9289 0001252 104.6670 255.4713 15.37533340487173
SKYSAT-C7               
1 42991U 17068E   26199.82790743  .00005577  00000+0  15397-3 0  9995
2 42991  97.4574 337.9153 0005373   8.9313 351.2026 15.37483144487239
SKYSAT-C6               
1 42992U 17068F   26199.71507521  .00004701  00000+0  14443-3 0  9993
2 42992  97.4612 337.6383 0005025  80.5471 279.6340 15.34204439487158
CARTOSAT-2F             
1 43111U 18004A   26199.82351912  .00002348  00000+0  11486-3 0  9990
2 43111  97.4767 259.1460 0002504 127.2617 232.8847 15.19189867472132
GAOFEN-1 02             
1 43259U 18031A   26199.87969134  .00000578  00000+0  90488-4 0  9992
2 43259  98.0508 262.3154 0001467 262.1112  97.9931 14.76475391447371
GAOFEN-1 03             
1 43260U 18031B   26199.85781262  .00000288  00000+0  48742-4 0  9990
2 43260  98.0501 262.1484 0002119   4.5901 355.5328 14.76465121447361
GAOFEN-1 04             
1 43262U 18031D   26199.83353544  .00000107  00000+0  22784-4 0  9996
2 43262  98.0508 262.3191 0001027  49.8564 310.2736 14.76440249447355
SENTINEL-3B             
1 43437U 18039A   26199.81827169  .00000041  00000+0  34917-4 0  9993
2 43437  98.6233 266.8941 0001233 118.8505 241.2799 14.26736975428634
GAOFEN-5 01             
1 43461U 18043A   26199.84787525  .00000139  00000+0  38616-4 0  9997
2 43461  98.4592 172.1033 0001880  24.5515 335.5774 14.60624754436313
GAOFEN-6                
1 43484U 18048A   26199.85626023 -.00000086  00000+0 -47604-5 0  9994
2 43484  98.0950 262.5667 0012075  71.3215 288.9304 14.76384525438064
GAOFEN-11 01            
1 43585U 18063A   26199.88351279  .00008374  00000+0  12121-3 0  9994
2 43585  97.1269 266.6888 0003594 184.6323 175.4900 15.56136652445271
ICESAT-2                
1 43613U 18070A   26199.78173449  .00004780  00000+0  17383-3 0  9996
2 43613  92.0090 299.5175 0005238  50.9076 309.2638 15.28213175437282
HYSIS                   
1 43719U 18096A   26199.81352403  .00000581  00000+0  86371-4 0  9993
2 43719  97.9821 266.3112 0001773  82.8261 277.3151 14.78674004412091
KAZSTSAT                
1 43783U 18099AB  26199.51887380  .00000096  00000+0  12223-4 0  9997
2 43783  97.4313 230.0361 0007222 327.1686  32.9088 14.99957675416008
