OBJECT_NAME,OBJECT_ID,EPOCH,MEAN_MOTION,ECCENTRICITY,INCLINATION,RA_OF_ASC_NODE,ARG_OF_PERICENTER,MEAN_ANOMALY,EPHEMERIS_TYPE,CLASSIFICATION_TYPE,NORAD_CAT_ID,ELEMENT_SET_NO,REV_AT_EPOCH,BSTAR,MEAN_MOTION_DOT,MEAN_MOTION_DDOT
SKYSAT-C4,2016-058B,2026-07-18T20:32:04.678080,15.49511206,.0003536,96.9169,220.3204,113.2946,246.8678,0,U,41771,999,55037,.18286E-3,.9989E-4,0
SKYSAT-C5,2016-058C,2026-07-18T20:45:26.362080,15.33747628,.0002949,97.0451,239.0806,151.1874,208.9533,0,U,41772,999,54860,.1173E-3,.3754E-4,0
SKYSAT-C2,2016-058D,2026-07-18T18:56:04.282080,15.42728957,.0000942,97.0160,220.7072,331.9832,28.1366,0,U,41773,999,54992,.15037E-3,.6485E-4,0
SKYSAT-C3,2016-058E,2026-07-18T12:27:03.497472,15.53801896,.00027014,96.8991,229.1846,129.3372,230.8123,0,U,41774,999,55097,.2082785E-3,.13282E-3,0
ALSAT-1B,2016-059C,2026-07-18T20:13:47.661600,14.72294804,.0010557,97.7755,207.2415,119.4787,240.7476,0,U,41785,999,52523,-.87113E-5,-.102E-5,0
PATHFINDER 1,2016-059E,2026-07-18T10:18:15.184224,14.67695242,.00299264,97.8178,197.2974,105.9279,254.5227,0,U,41787,999,52429,.53518423E-4,.26E-5,0
SCATSAT 1,2016-059H,2026-07-18T17:28:49.159200,14.79592072,.005546,98.1175,263.8177,145.3473,215.1372,0,U,41790,999,10625,.84036E-4,.589E-5,0
GOKTURK 1A,2016-073A,2026-07-18T20:21:20.026944,14.62794438,.0001427,98.1207,94.0206,81.5942,278.5422,0,U,41875,999,51345,.25711E-4,.85E-6,0
RESOURCESAT-2A,2016-074A,2026-07-18T19:31:06.305952,14.21609994,.0002178,98.7515,273.0574,19.5923,340.5337,0,U,41877,999,49879,.10097E-3,.177E-5,0
CARTOSAT-2D,2017-008A,2026-07-18T20:07:54.060096,15.19298717,.0006221,97.4085,258.5503,128.3918,231.7876,0,U,41948,999,52238,.95883E-4,.1957E-4,0
SENTINEL-2B,2017-013A,2026-07-18T19:34:54.170400,14.30816138,.0001218,98.5681,274.1425,92.9836,267.1486,0,U,42063,999,48916,.66313E-4,.13E-5,0
CARTOSAT-2E,2017-036C,2026-07-18T20:33:35.216640,15.19267421,.0003598,97.4253,259.1338,174.7811,185.3461,0,U,42767,999,50295,.66371E-4,.1332E-4,0
FORMOSAT-5,2017-049A,2026-07-18T20:16:35.299200,14.50908396,.0011078,98.2244,274.4498,352.5041,7.5987,0,U,42920,999,47126,.19241E-4,.32E-6,0
SENTINEL-5P,2017-064A,2026-07-18T18:42:33.386112,14.19523568,.0001165,98.7929,141.6874,93.9963,266.1346,0,U,42969,999,45404,.221E-4,.2E-7,0
SKYSAT-C11,2017-068A,2026-07-17T22:29:10.631904,15.59422768,.00012891,97.4388,349.1483,155.4215,204.7103,0,U,42987,999,48803,.21849398E-3,.17166E-3,0
SKYSAT-C10,2017-068B,2026-07-18T20:17:36.744288,15.35160017,.0001515,97.4546,337.0195,111.4367,248.7038,0,U,42988,999,48721,.17493E-3,.5887E-4,0
SKYSAT-C9,2017-068C,2026-07-18T20:14:00.371040,15.42267528,.0008324,97.4468,338.2593,32.9029,327.2734,0,U,42989,999,48763,.16521E-3,.7023E-4,0
SKYSAT-C8,2017-068D,2026-07-18T19:59:57.862176,15.37533340,.0001252,97.4564,336.9289,104.6670,255.4713,0,U,42990,999,48717,.15424E-3,.5594E-4,0
SKYSAT-C7,2017-068E,2026-07-18T19:52:11.201952,15.37483144,.0005373,97.4574,337.9153,8.9313,351.2026,0,U,42991,999,48723,.15397E-3,.5577E-4,0
SKYSAT-C6,2017-068F,2026-07-18T17:09:42.498144,15.34204439,.0005025,97.4612,337.6383,80.5471,279.6340,0,U,42992,999,48715,.14443E-3,.4701E-4,0
CARTOSAT-2F,2018-004A,2026-07-18T19:45:52.051968,15.19189867,.0002504,97.4767,259.1460,127.2617,232.8847,0,U,43111,999,47213,.11486E-3,.2348E-4,0
GAOFEN-1 02,2018-031A,2026-07-18T21:06:45.331776,14.76475391,.0001467,98.0508,262.3154,262.1112,97.9931,0,U,43259,999,44737,.90488E-4,.578E-5,0
GAOFEN-1 03,2018-031B,2026-07-18T20:35:15.010368,14.76465121,.0002119,98.0501,262.1484,4.5901,355.5328,0,U,43260,999,44736,.48742E-4,.288E-5,0
GAOFEN-1 04,2018-031D,2026-07-18T20:00:17.462016,14.76440249,.0001027,98.0508,262.3191,49.8564,310.2736,0,U,43262,999,44735,.22784E-4,.107E-5,0
SENTINEL-3B,2018-039A,2026-07-18T19:38:18.674016,14.26736975,.0001233,98.6233,266.8941,118.8505,241.2799,0,U,43437,999,42863,.34917E-4,.41E-6,0
GAOFEN-5 01,2018-043A,2026-07-18T20:20:56.421600,14.60624754,.000188,98.4592,172.1033,24.5515,335.5774,0,U,43461,999,43631,.38616E-4,.139E-5,0
GAOFEN-6,2018-048A,2026-07-18T20:33:00.883872,14.76384525,.0012075,98.0950,262.5667,71.3215,288.9304,0,U,43484,999,43806,-.47604E-5,-.86E-6,0
GAOFEN-11 01,2018-063A,2026-07-18T21:12:15.505056,15.56136652,.0003594,97.1269,266.6888,184.6323,175.4900,0,U,43585,999,44527,.12121E-3,.8374E-4,0
ICESAT-2,2018-070A,2026-07-18T18:45:41.859936,15.28213175,.0005238,92.0090,299.5175,50.9076,309.2638,0,U,43613,999,43728,.17383E-3,.478E-4,0
HYSIS,2018-096A,2026-07-18T19:31:28.476192,14.78674004,.0001773,97.9821,266.3112,82.8261,277.3151,0,U,43719,999,41209,.86371E-4,.581E-5,0
KAZSTSAT,2018-099AB,2026-07-18T12:27:10.696320,14.99957675,.00072224,97.4313,230.0361,327.1686,32.9088,0,U,43783,999,41600,.12223477E-4,.96E-6,0
